[{"OBJECT_NAME":"SL-12 R/B(2)","OBJECT_ID":"1986-090D","EPOCH":"2026-03-05T02:31:14.610144","MEAN_MOTION":1.00310018,"ECCENTRICITY":0.0007605,"INCLINATION":10.5018,"RA_OF_ASC_NODE":323.3925,"ARG_OF_PERICENTER":183.7885,"MEAN_ANOMALY":176.1836,"EPHEMERIS_TYPE":0,"CLASSIFICATION_TYPE":"U","NORAD_CAT_ID":17125,"ELEMENT_SET_NO":999,"REV_AT_EPOCH":14382,"BSTAR":0,"MEAN_MOTION_DOT":-3.76e-6,"MEAN_MOTION_DDOT":0},{"OBJECT_NAME":"GOES 7","OBJECT_ID":"1987-022A","EPOCH":"2026-03-05T08:13:28.498944","MEAN_MOTION":0.99895004,"ECCENTRICITY":0.0003961,"INCLINATION":13.02,"RA_OF_ASC_NODE":338.3678,"ARG_OF_PERICENTER":14.8217,"MEAN_ANOMALY":158.7836,"EPHEMERIS_TYPE":0,"CLASSIFICATION_TYPE":"U","NORAD_CAT_ID":17561,"ELEMENT_SET_NO":999,"REV_AT_EPOCH":12592,"BSTAR":0,"MEAN_MOTION_DOT":8.0e-7,"MEAN_MOTION_DDOT":0},{"OBJECT_NAME":"AGILA 1 (PALAPA B2P)","OBJECT_ID":"1987-029A","EPOCH":"2026-03-05T18:46:59.897280","MEAN_MOTION":0.99913682,"ECCENTRICITY":0.0002992,"INCLINATION":14.4123,"RA_OF_ASC_NODE":348.9596,"ARG_OF_PERICENTER":6.9343,"MEAN_ANOMALY":212.3345,"EPHEMERIS_TYPE":0,"CLASSIFICATION_TYPE":"U","NORAD_CAT_ID":17706,"ELEMENT_SET_NO":999,"REV_AT_EPOCH":4149,"BSTAR":0,"MEAN_MOTION_DOT":-3.69e-6,"MEAN_MOTION_DDOT":0},{"OBJECT_NAME":"SL-12 R/B(2)","OBJECT_ID":"1976-092F","EPOCH":"2026-03-05T16:06:37.015200","MEAN_MOTION":1.00225637,"ECCENTRICITY":0.0014917,"INCLINATION":3.7292,"RA_OF_ASC_NODE":271.6654,"ARG_OF_PERICENTER":193.0547,"MEAN_ANOMALY":24.6824,"EPHEMERIS_TYPE":0,"CLASSIFICATION_TYPE":"U","NORAD_CAT_ID":17872,"ELEMENT_SET_NO":999,"REV_AT_EPOCH":11788,"BSTAR":0,"MEAN_MOTION_DOT":-1.77e-6,"MEAN_MOTION_DDOT":0},{"OBJECT_NAME":"SL-12 R/B(2)","OBJECT_ID":"1979-035E","EPOCH":"2026-03-05T15:54:23.189760","MEAN_MOTION":1.00144533,"ECCENTRICITY":0.0025503,"INCLINATION":5.4802,"RA_OF_ASC_NODE":283.1182,"ARG_OF_PERICENTER":252.1858,"MEAN_ANOMALY":268.5333,"EPHEMERIS_TYPE":0,"CLASSIFICATION_TYPE":"U","NORAD_CAT_ID":17873,"ELEMENT_SET_NO":999,"REV_AT_EPOCH":18413,"BSTAR":0,"MEAN_MOTION_DOT":1.37e-6,"MEAN_MOTION_DDOT":0},{"OBJECT_NAME":"SL-12 R/B(2)","OBJECT_ID":"1984-016F","EPOCH":"2026-03-03T19:27:22.340736","MEAN_MOTION":1.00293375,"ECCENTRICITY":0.0034009,"INCLINATION":8.7765,"RA_OF_ASC_NODE":311.5619,"ARG_OF_PERICENTER":228.3334,"MEAN_ANOMALY":325.7091,"EPHEMERIS_TYPE":0,"CLASSIFICATION_TYPE":"U","NORAD_CAT_ID":17874,"ELEMENT_SET_NO":999,"REV_AT_EPOCH":12179,"BSTAR":0,"MEAN_MOTION_DOT":7.3e-7,"MEAN_MOTION_DDOT":0},{"OBJECT_NAME":"COSMOS 1888","OBJECT_ID":"1987-084A","EPOCH":"2026-03-05T18:54:46.298304","MEAN_MOTION":1.00172344,"ECCENTRICITY":0.0002505,"INCLINATION":10.9421,"RA_OF_ASC_NODE":326.7379,"ARG_OF_PERICENTER":299.3533,"MEAN_ANOMALY":287.6984,"EPHEMERIS_TYPE":0,"CLASSIFICATION_TYPE":"U","NORAD_CAT_ID":18384,"ELEMENT_SET_NO":999,"REV_AT_EPOCH":14065,"BSTAR":0,"MEAN_MOTION_DOT":-3.43e-6,"MEAN_MOTION_DDOT":0},{"OBJECT_NAME":"SL-12 R/B(2)","OBJECT_ID":"1987-084D","EPOCH":"2026-03-05T10:35:02.839776","MEAN_MOTION":1.00052377,"ECCENTRICITY":0.0029079,"INCLINATION":11.0947,"RA_OF_ASC_NODE":327.3409,"ARG_OF_PERICENTER":250.8502,"MEAN_ANOMALY":299.1535,"EPHEMERIS_TYPE":0,"CLASSIFICATION_TYPE":"U","NORAD_CAT_ID":18387,"ELEMENT_SET_NO":999,"REV_AT_EPOCH":14773,"BSTAR":0,"MEAN_MOTION_DOT":7.6e-7,"MEAN_MOTION_DDOT":0},{"OBJECT_NAME":"COSMOS 1894","OBJECT_ID":"1987-091A","EPOCH":"2026-03-05T02:29:38.591232","MEAN_MOTION":1.00265202,"ECCENTRICITY":0.00053755,"INCLINATION":10.9023,"RA_OF_ASC_NODE":326.2113,"ARG_OF_PERICENTER":8.3327,"MEAN_ANOMALY":204.876,"EPHEMERIS_TYPE":0,"CLASSIFICATION_TYPE":"U","NORAD_CAT_ID":18443,"ELEMENT_SET_NO":999,"REV_AT_EPOCH":11977,"BSTAR":0,"MEAN_MOTION_DOT":-1.85e-6,"MEAN_MOTION_DDOT":0},{"OBJECT_NAME":"SL-12 R/B(2)","OBJECT_ID":"1987-091D","EPOCH":"2026-03-05T16:19:41.484864","MEAN_MOTION":1.00233792,"ECCENTRICITY":0.0022422,"INCLINATION":10.9351,"RA_OF_ASC_NODE":326.3779,"ARG_OF_PERICENTER":266.0975,"MEAN_ANOMALY":322.3806,"EPHEMERIS_TYPE":0,"CLASSIFICATION_TYPE":"U","NORAD_CAT_ID":18446,"ELEMENT_SET_NO":999,"REV_AT_EPOCH":12896,"BSTAR":0,"MEAN_MOTION_DOT":-2.57e-6,"MEAN_MOTION_DDOT":0},{"OBJECT_NAME":"COSMOS 1897","OBJECT_ID":"1987-096A","EPOCH":"2026-03-04T23:57:22.803840","MEAN_MOTION":1.0032265,"ECCENTRICITY":0.00051015,"INCLINATION":11.1682,"RA_OF_ASC_NODE":327.5738,"ARG_OF_PERICENTER":131.8769,"MEAN_ANOMALY":133.3123,"EPHEMERIS_TYPE":0,"CLASSIFICATION_TYPE":"U","NORAD_CAT_ID":18575,"ELEMENT_SET_NO":999,"REV_AT_EPOCH":14014,"BSTAR":0,"MEAN_MOTION_DOT":-8.1e-7,"MEAN_MOTION_DDOT":0},{"OBJECT_NAME":"SL-12 R/B(2)","OBJECT_ID":"1987-096D","EPOCH":"2026-03-05T05:03:54.175680","MEAN_MOTION":1.00575617,"ECCENTRICITY":0.0022101,"INCLINATION":10.9617,"RA_OF_ASC_NODE":326.8393,"ARG_OF_PERICENTER":248.8828,"MEAN_ANOMALY":304.8004,"EPHEMERIS_TYPE":0,"CLASSIFICATION_TYPE":"U","NORAD_CAT_ID":18578,"ELEMENT_SET_NO":999,"REV_AT_EPOCH":13698,"BSTAR":0,"MEAN_MOTION_DOT":-2.83e-6,"MEAN_MOTION_DDOT":0},{"OBJECT_NAME":"RADUGA 21","OBJECT_ID":"1987-100A","EPOCH":"2026-03-05T07:46:38.500608","MEAN_MOTION":1.00356637,"ECCENTRICITY":0.0001638,"INCLINATION":11.4543,"RA_OF_ASC_NODE":325.9939,"ARG_OF_PERICENTER":309.1296,"MEAN_ANOMALY":242.9496,"EPHEMERIS_TYPE":0,"CLASSIFICATION_TYPE":"U","NORAD_CAT_ID":18631,"ELEMENT_SET_NO":999,"REV_AT_EPOCH":14004,"BSTAR":0,"MEAN_MOTION_DOT":-2.1e-7,"MEAN_MOTION_DDOT":0},{"OBJECT_NAME":"STTW-2","OBJECT_ID":"1988-014A","EPOCH":"2026-03-05T16:17:02.242752","MEAN_MOTION":1.00301508,"ECCENTRICITY":0.0003341,"INCLINATION":13.3466,"RA_OF_ASC_NODE":340.4342,"ARG_OF_PERICENTER":186.1077,"MEAN_ANOMALY":310.0086,"EPHEMERIS_TYPE":0,"CLASSIFICATION_TYPE":"U","NORAD_CAT_ID":18922,"ELEMENT_SET_NO":999,"REV_AT_EPOCH":13907,"BSTAR":0,"MEAN_MOTION_DOT":-6.1e-7,"MEAN_MOTION_DDOT":0},{"OBJECT_NAME":"SPACENET 3R","OBJECT_ID":"1988-018A","EPOCH":"2026-03-03T22:49:46.263360","MEAN_MOTION":0.99659334,"ECCENTRICITY":0.0005506,"INCLINATION":14.6808,"RA_OF_ASC_NODE":0.4818,"ARG_OF_PERICENTER":287.0534,"MEAN_ANOMALY":257.9452,"EPHEMERIS_TYPE":0,"CLASSIFICATION_TYPE":"U","NORAD_CAT_ID":18951,"ELEMENT_SET_NO":999,"REV_AT_EPOCH":12356,"BSTAR":0,"MEAN_MOTION_DOT":8.8e-7,"MEAN_MOTION_DDOT":0},{"OBJECT_NAME":"COSMOS 1940","OBJECT_ID":"1988-034A","EPOCH":"2026-03-03T22:35:02.674752","MEAN_MOTION":1.00656752,"ECCENTRICITY":0.0021792,"INCLINATION":11.1122,"RA_OF_ASC_NODE":327.2642,"ARG_OF_PERICENTER":295.7836,"MEAN_ANOMALY":226.9733,"EPHEMERIS_TYPE":0,"CLASSIFICATION_TYPE":"U","NORAD_CAT_ID":19073,"ELEMENT_SET_NO":999,"REV_AT_EPOCH":12029,"BSTAR":0,"MEAN_MOTION_DOT":-4.4e-7,"MEAN_MOTION_DDOT":0},{"OBJECT_NAME":"SL-12 R/B(2)","OBJECT_ID":"1988-034D","EPOCH":"2026-03-05T06:35:15.415872","MEAN_MOTION":1.00083161,"ECCENTRICITY":0.0022059,"INCLINATION":11.408,"RA_OF_ASC_NODE":328.2562,"ARG_OF_PERICENTER":189.7329,"MEAN_ANOMALY":344.9497,"EPHEMERIS_TYPE":0,"CLASSIFICATION_TYPE":"U","NORAD_CAT_ID":19076,"ELEMENT_SET_NO":999,"REV_AT_EPOCH":13806,"BSTAR":0,"MEAN_MOTION_DOT":-2.0e-8,"MEAN_MOTION_DDOT":0}]
