SL-12 R/B(2)            
1 17125U 86090D   26064.10503021 -.00000376  00000+0  00000+0 0  9994
2 17125  10.5018 323.3925 0007605 183.7885 176.1836  1.00310018143822
GOES 7                  
1 17561U 87022A   26064.34269096  .00000080  00000+0  00000+0 0  9992
2 17561  13.0200 338.3678 0003961  14.8217 158.7836  0.99895004125929
AGILA 1 (PALAPA B2P)    
1 17706U 87029A   26064.78263770 -.00000369  00000+0  00000+0 0  9992
2 17706  14.4123 348.9596 0002992   6.9343 212.3345  0.99913682 41494
SL-12 R/B(2)            
1 17872U 76092F   26064.67126175 -.00000177  00000+0  00000+0 0  9996
2 17872   3.7292 271.6654 0014917 193.0547  24.6824  1.00225637117889
SL-12 R/B(2)            
1 17873U 79035E   26064.66276840  .00000137  00000+0  00000+0 0  9996
2 17873   5.4802 283.1182 0025503 252.1858 268.5333  1.00144533184136
SL-12 R/B(2)            
1 17874U 84016F   26062.81067524  .00000073  00000+0  00000+0 0  9993
2 17874   8.7765 311.5619 0034009 228.3334 325.7091  1.00293375121796
COSMOS 1888             
1 18384U 87084A   26064.78803586 -.00000343  00000+0  00000+0 0  9993
2 18384  10.9421 326.7379 0002505 299.3533 287.6984  1.00172344140658
SL-12 R/B(2)            
1 18387U 87084D   26064.44100509  .00000076  00000+0  00000+0 0  9996
2 18387  11.0947 327.3409 0029079 250.8502 299.1535  1.00052377147739
COSMOS 1894             
1 18443U 87091A   26064.10391888 -.00000185  00000+0  00000+0 0  9994
2 18443  10.9023 326.2113 0005375   8.3327 204.8760  1.00265202119778
SL-12 R/B(2)            
1 18446U 87091D   26064.68034126 -.00000257  00000+0  00000+0 0  9999
2 18446  10.9351 326.3779 0022422 266.0975 322.3806  1.00233792128965
COSMOS 1897             
1 18575U 87096A   26063.99818060 -.00000081  00000+0  00000+0 0  9992
2 18575  11.1682 327.5738 0005101 131.8769 133.3123  1.00322650140149
SL-12 R/B(2)            
1 18578U 87096D   26064.21104370 -.00000283  00000+0  00000+0 0  9997
2 18578  10.9617 326.8393 0022101 248.8828 304.8004  1.00575617136983
RADUGA 21               
1 18631U 87100A   26064.32405672 -.00000021  00000+0  00000+0 0  9994
2 18631  11.4543 325.9939 0001638 309.1296 242.9496  1.00356637140043
STTW-2                  
1 18922U 88014A   26064.67849818 -.00000061  00000+0  00000+0 0  9998
2 18922  13.3466 340.4342 0003341 186.1077 310.0086  1.00301508139074
SPACENET 3R             
1 18951U 88018A   26062.95122990  .00000088  00000+0  00000+0 0  9996
2 18951  14.6808   0.4818 0005506 287.0534 257.9452  0.99659334123568
COSMOS 1940             
1 19073U 88034A   26062.94100318 -.00000044  00000+0  00000+0 0  9992
2 19073  11.1122 327.2642 0021792 295.7836 226.9733  1.00656752120295
SL-12 R/B(2)            
1 19076U 88034D   26064.27448398 -.00000002  00000+0  00000+0 0  9990
2 19076  11.4080 328.2562 0022059 189.7329 344.9497  1.00083161138062
